[{"OBJECT_NAME":"STARLINK-4496","OBJECT_ID":"2022-097AA","EPOCH":"2026-03-09T11:59:49.975872","MEAN_MOTION":15.08850041,"ECCENTRICITY":0.0001302,"INCLINATION":53.2157,"RA_OF_ASC_NODE":114.9695,"ARG_OF_PERICENTER":98.6369,"MEAN_ANOMALY":261.4771,"EPHEMERIS_TYPE":0,"CLASSIFICATION_TYPE":"U","NORAD_CAT_ID":53412,"ELEMENT_SET_NO":999,"REV_AT_EPOCH":19862,"BSTAR":0.00052533052,"MEAN_MOTION_DOT":8.085e-5,"MEAN_MOTION_DDOT":0},{"OBJECT_NAME":"THORAD DELTA 1 DEB","OBJECT_ID":"1974-089BJ","EPOCH":"2026-03-09T17:26:50.938944","MEAN_MOTION":14.89612235,"ECCENTRICITY":0.00930761,"INCLINATION":102.9252,"RA_OF_ASC_NODE":157.5149,"ARG_OF_PERICENTER":255.4838,"MEAN_ANOMALY":103.6021,"EPHEMERIS_TYPE":0,"CLASSIFICATION_TYPE":"U","NORAD_CAT_ID":8301,"ELEMENT_SET_NO":999,"REV_AT_EPOCH":53411,"BSTAR":0.014617981,"MEAN_MOTION_DOT":0.00154551,"MEAN_MOTION_DDOT":0}]
